STARLINK-1137_new
1 15092C 20006BA  21326.16284341  .00005809  00000-0  38926-3 0  3268
2 15092  53.0545  88.0153 0001258  72.8442 348.0520 15.06387865    14
STARLINK-1137_old
1 25092C 20006BA  21325.11197958  .00002746  00000-0  18408-3 0  3258
2 25092  53.0538  92.7325 0001267  75.3545  43.5725 15.06377759    16
